[{"OBJECT_NAME":"NEXSAT-1","OBJECT_ID":"2024-024E","EPOCH":"2026-03-09T22:47:24.778176","MEAN_MOTION":15.32166372,"ECCENTRICITY":0.00099795,"INCLINATION":97.3124,"RA_OF_ASC_NODE":144.1918,"ARG_OF_PERICENTER":108.5709,"MEAN_ANOMALY":251.6617,"EPHEMERIS_TYPE":0,"CLASSIFICATION_TYPE":"U","NORAD_CAT_ID":58921,"ELEMENT_SET_NO":999,"REV_AT_EPOCH":11669,"BSTAR":0.00031433612,"MEAN_MOTION_DOT":9.702e-5,"MEAN_MOTION_DDOT":0},{"OBJECT_NAME":"STARLINK-31356","OBJECT_ID":"2024-031D","EPOCH":"2026-03-09T22:57:02.865888","MEAN_MOTION":15.30192166,"ECCENTRICITY":0.00012234,"INCLINATION":53.1588,"RA_OF_ASC_NODE":267.6032,"ARG_OF_PERICENTER":80.6378,"MEAN_ANOMALY":279.4761,"EPHEMERIS_TYPE":0,"CLASSIFICATION_TYPE":"U","NORAD_CAT_ID":58968,"ELEMENT_SET_NO":999,"REV_AT_EPOCH":11696,"BSTAR":1.3017387e-5,"MEAN_MOTION_DOT":2.6e-7,"MEAN_MOTION_DDOT":0}]
